[{"OBJECT_NAME":"GSAT-16","OBJECT_ID":"2014-078A","EPOCH":"2022-08-19T01:58:39.339264","MEAN_MOTION":1.00270367,"ECCENTRICITY":0.0006079,"INCLINATION":0.1144,"RA_OF_ASC_NODE":273.4987,"ARG_OF_PERICENTER":190.92,"MEAN_ANOMALY":307.7152,"EPHEMERIS_TYPE":0,"CLASSIFICATION_TYPE":"U","NORAD_CAT_ID":40332,"ELEMENT_SET_NO":999,"REV_AT_EPOCH":2824,"BSTAR":0,"MEAN_MOTION_DOT":7.9e-7,"MEAN_MOTION_DDOT":0},{"OBJECT_NAME":"DIRECTV 14","OBJECT_ID":"2014-078B","EPOCH":"2022-08-19T04:53:12.391296","MEAN_MOTION":1.00271076,"ECCENTRICITY":0.0001082,"INCLINATION":0.0134,"RA_OF_ASC_NODE":100.044,"ARG_OF_PERICENTER":121.7082,"MEAN_ANOMALY":79.8458,"EPHEMERIS_TYPE":0,"CLASSIFICATION_TYPE":"U","NORAD_CAT_ID":40333,"ELEMENT_SET_NO":999,"REV_AT_EPOCH":2822,"BSTAR":0,"MEAN_MOTION_DOT":-1.32e-6,"MEAN_MOTION_DDOT":0},{"OBJECT_NAME":"YAMAL 401","OBJECT_ID":"2014-082A","EPOCH":"2022-08-19T02:08:42.069120","MEAN_MOTION":1.00272803,"ECCENTRICITY":3.06e-5,"INCLINATION":0.013,"RA_OF_ASC_NODE":95.9412,"ARG_OF_PERICENTER":73.7065,"MEAN_ANOMALY":279.8756,"EPHEMERIS_TYPE":0,"CLASSIFICATION_TYPE":"U","NORAD_CAT_ID":40345,"ELEMENT_SET_NO":999,"REV_AT_EPOCH":2839,"BSTAR":0,"MEAN_MOTION_DOT":-2.35e-6,"MEAN_MOTION_DDOT":0},{"OBJECT_NAME":"ASTRA 2G","OBJECT_ID":"2014-089A","EPOCH":"2022-08-19T01:50:59.757792","MEAN_MOTION":1.00267393,"ECCENTRICITY":0.0003391,"INCLINATION":0.0451,"RA_OF_ASC_NODE":312.9528,"ARG_OF_PERICENTER":135.2128,"MEAN_ANOMALY":295.1817,"EPHEMERIS_TYPE":0,"CLASSIFICATION_TYPE":"U","NORAD_CAT_ID":40364,"ELEMENT_SET_NO":999,"REV_AT_EPOCH":2800,"BSTAR":0,"MEAN_MOTION_DOT":1.43e-6,"MEAN_MOTION_DDOT":0},{"OBJECT_NAME":"FENGYUN 2G","OBJECT_ID":"2014-090A","EPOCH":"2022-08-18T21:02:59.091648","MEAN_MOTION":1.00266211,"ECCENTRICITY":5.71e-5,"INCLINATION":2.0886,"RA_OF_ASC_NODE":88.8858,"ARG_OF_PERICENTER":246.3275,"MEAN_ANOMALY":47.3859,"EPHEMERIS_TYPE":0,"CLASSIFICATION_TYPE":"U","NORAD_CAT_ID":40367,"ELEMENT_SET_NO":999,"REV_AT_EPOCH":2797,"BSTAR":0,"MEAN_MOTION_DOT":-3.09e-6,"MEAN_MOTION_DDOT":0},{"OBJECT_NAME":"MUOS-3","OBJECT_ID":"2015-002A","EPOCH":"2022-08-18T20:28:36.738336","MEAN_MOTION":1.00272733,"ECCENTRICITY":0.0057822,"INCLINATION":2.5759,"RA_OF_ASC_NODE":15.0318,"ARG_OF_PERICENTER":177.0304,"MEAN_ANOMALY":66.7792,"EPHEMERIS_TYPE":0,"CLASSIFICATION_TYPE":"U","NORAD_CAT_ID":40374,"ELEMENT_SET_NO":999,"REV_AT_EPOCH":2756,"BSTAR":0,"MEAN_MOTION_DOT":-1.35e-6,"MEAN_MOTION_DDOT":0},{"OBJECT_NAME":"INMARSAT 5-F2","OBJECT_ID":"2015-005A","EPOCH":"2022-08-19T01:27:08.277408","MEAN_MOTION":1.00272037,"ECCENTRICITY":1.41e-5,"INCLINATION":0.0185,"RA_OF_ASC_NODE":112.3018,"ARG_OF_PERICENTER":156.8945,"MEAN_ANOMALY":24.9833,"EPHEMERIS_TYPE":0,"CLASSIFICATION_TYPE":"U","NORAD_CAT_ID":40384,"ELEMENT_SET_NO":999,"REV_AT_EPOCH":2765,"BSTAR":0,"MEAN_MOTION_DOT":-2.92e-6,"MEAN_MOTION_DDOT":0},{"OBJECT_NAME":"ABS-3A","OBJECT_ID":"2015-010A","EPOCH":"2022-08-19T01:41:57.303168","MEAN_MOTION":1.00271637,"ECCENTRICITY":0.0002375,"INCLINATION":0.0166,"RA_OF_ASC_NODE":101.3976,"ARG_OF_PERICENTER":322.2501,"MEAN_ANOMALY":286.2129,"EPHEMERIS_TYPE":0,"CLASSIFICATION_TYPE":"U","NORAD_CAT_ID":40424,"ELEMENT_SET_NO":999,"REV_AT_EPOCH":2736,"BSTAR":0,"MEAN_MOTION_DOT":-3.3e-7,"MEAN_MOTION_DDOT":0},{"OBJECT_NAME":"EUTELSAT 115 WEST B","OBJECT_ID":"2015-010B","EPOCH":"2022-08-19T04:40:10.011648","MEAN_MOTION":1.00272498,"ECCENTRICITY":2.06e-5,"INCLINATION":0.0075,"RA_OF_ASC_NODE":250.495,"ARG_OF_PERICENTER":176.7964,"MEAN_ANOMALY":215.3756,"EPHEMERIS_TYPE":0,"CLASSIFICATION_TYPE":"U","NORAD_CAT_ID":40425,"ELEMENT_SET_NO":999,"REV_AT_EPOCH":2741,"BSTAR":0,"MEAN_MOTION_DOT":-3.1e-7,"MEAN_MOTION_DDOT":0},{"OBJECT_NAME":"EXPRESS-AM7","OBJECT_ID":"2015-012A","EPOCH":"2022-08-18T20:44:26.036736","MEAN_MOTION":1.00272152,"ECCENTRICITY":0.0002867,"INCLINATION":0.0168,"RA_OF_ASC_NODE":106.2256,"ARG_OF_PERICENTER":48.6465,"MEAN_ANOMALY":163.394,"EPHEMERIS_TYPE":0,"CLASSIFICATION_TYPE":"U","NORAD_CAT_ID":40505,"ELEMENT_SET_NO":999,"REV_AT_EPOCH":2698,"BSTAR":0,"MEAN_MOTION_DOT":1.44e-6,"MEAN_MOTION_DDOT":0},{"OBJECT_NAME":"IRNSS-1D","OBJECT_ID":"2015-018A","EPOCH":"2022-08-16T18:00:16.532640","MEAN_MOTION":1.00266041,"ECCENTRICITY":0.0021386,"INCLINATION":28.8522,"RA_OF_ASC_NODE":264.1256,"ARG_OF_PERICENTER":193.3446,"MEAN_ANOMALY":249.3471,"EPHEMERIS_TYPE":0,"CLASSIFICATION_TYPE":"U","NORAD_CAT_ID":40547,"ELEMENT_SET_NO":999,"REV_AT_EPOCH":2695,"BSTAR":0,"MEAN_MOTION_DOT":-2.77e-6,"MEAN_MOTION_DDOT":0},{"OBJECT_NAME":"BEIDOU 17","OBJECT_ID":"2015-019A","EPOCH":"2022-08-18T16:39:42.648768","MEAN_MOTION":1.00284155,"ECCENTRICITY":0.0038059,"INCLINATION":51.7785,"RA_OF_ASC_NODE":312.0344,"ARG_OF_PERICENTER":195.3007,"MEAN_ANOMALY":164.9313,"EPHEMERIS_TYPE":0,"CLASSIFICATION_TYPE":"U","NORAD_CAT_ID":40549,"ELEMENT_SET_NO":999,"REV_AT_EPOCH":2706,"BSTAR":0,"MEAN_MOTION_DOT":-1.85e-6,"MEAN_MOTION_DDOT":0},{"OBJECT_NAME":"THOR 7","OBJECT_ID":"2015-022A","EPOCH":"2022-08-19T01:42:42.505920","MEAN_MOTION":1.00270966,"ECCENTRICITY":0.0002569,"INCLINATION":0.0379,"RA_OF_ASC_NODE":271.1243,"ARG_OF_PERICENTER":236.5412,"MEAN_ANOMALY":204.7589,"EPHEMERIS_TYPE":0,"CLASSIFICATION_TYPE":"U","NORAD_CAT_ID":40613,"ELEMENT_SET_NO":999,"REV_AT_EPOCH":2679,"BSTAR":0,"MEAN_MOTION_DOT":-1.5e-7,"MEAN_MOTION_DDOT":0},{"OBJECT_NAME":"TURKMENALEM52E\/MONACOSAT","OBJECT_ID":"2015-023A","EPOCH":"2022-08-18T20:18:42.882624","MEAN_MOTION":1.00272444,"ECCENTRICITY":0.0002324,"INCLINATION":0.0197,"RA_OF_ASC_NODE":115.1457,"ARG_OF_PERICENTER":34.5578,"MEAN_ANOMALY":174.1418,"EPHEMERIS_TYPE":0,"CLASSIFICATION_TYPE":"U","NORAD_CAT_ID":40617,"ELEMENT_SET_NO":999,"REV_AT_EPOCH":2681,"BSTAR":0,"MEAN_MOTION_DOT":9.7e-7,"MEAN_MOTION_DDOT":0},{"OBJECT_NAME":"DIRECTV 15","OBJECT_ID":"2015-026A","EPOCH":"2022-08-19T04:49:56.866368","MEAN_MOTION":1.00273135,"ECCENTRICITY":5.13e-5,"INCLINATION":0.0136,"RA_OF_ASC_NODE":103.1997,"ARG_OF_PERICENTER":268.5972,"MEAN_ANOMALY":285.3417,"EPHEMERIS_TYPE":0,"CLASSIFICATION_TYPE":"U","NORAD_CAT_ID":40663,"ELEMENT_SET_NO":999,"REV_AT_EPOCH":2651,"BSTAR":0,"MEAN_MOTION_DOT":-1.09e-6,"MEAN_MOTION_DDOT":0},{"OBJECT_NAME":"SKY MEXICO-1","OBJECT_ID":"2015-026B","EPOCH":"2022-08-18T20:10:24.292416","MEAN_MOTION":1.00272937,"ECCENTRICITY":0.0001957,"INCLINATION":0.0053,"RA_OF_ASC_NODE":293.9132,"ARG_OF_PERICENTER":228.4384,"MEAN_ANOMALY":28.6531,"EPHEMERIS_TYPE":0,"CLASSIFICATION_TYPE":"U","NORAD_CAT_ID":40664,"ELEMENT_SET_NO":999,"REV_AT_EPOCH":2643,"BSTAR":0,"MEAN_MOTION_DOT":-2.41e-6,"MEAN_MOTION_DDOT":0},{"OBJECT_NAME":"METEOSAT-11 (MSG-4)","OBJECT_ID":"2015-034A","EPOCH":"2022-08-18T18:49:32.323296","MEAN_MOTION":1.00268111,"ECCENTRICITY":0.0001288,"INCLINATION":0.4156,"RA_OF_ASC_NODE":68.5368,"ARG_OF_PERICENTER":34.5307,"MEAN_ANOMALY":146.1338,"EPHEMERIS_TYPE":0,"CLASSIFICATION_TYPE":"U","NORAD_CAT_ID":40732,"ELEMENT_SET_NO":999,"REV_AT_EPOCH":2600,"BSTAR":0,"MEAN_MOTION_DOT":-1.4e-7,"MEAN_MOTION_DDOT":0}]