GSAT-16                 
1 40332U 14078A   22231.08239976  .00000079  00000+0  00000+0 0  9990
2 40332   0.1144 273.4987 0006079 190.9200 307.7152  1.00270367 28244
DIRECTV 14              
1 40333U 14078B   22231.20361564 -.00000132  00000+0  00000+0 0  9995
2 40333   0.0134 100.0440 0001082 121.7082  79.8458  1.00271076 28223
YAMAL 401               
1 40345U 14082A   22231.08937580 -.00000235  00000+0  00000+0 0  9990
2 40345   0.0130  95.9412 0000306  73.7065 279.8756  1.00272803 28398
ASTRA 2G                
1 40364U 14089A   22231.07708053  .00000143  00000+0  00000+0 0  9995
2 40364   0.0451 312.9528 0003391 135.2128 295.1817  1.00267393 28001
FENGYUN 2G              
1 40367U 14090A   22230.87707282 -.00000309  00000+0  00000+0 0  9995
2 40367   2.0886  88.8858 0000571 246.3275  47.3859  1.00266211 27973
MUOS-3                  
1 40374U 15002A   22230.85320299 -.00000135  00000+0  00000+0 0  9991
2 40374   2.5759  15.0318 0057822 177.0304  66.7792  1.00272733 27564
INMARSAT 5-F2           
1 40384U 15005A   22231.06051247 -.00000292  00000+0  00000+0 0  9997
2 40384   0.0185 112.3018 0000141 156.8945  24.9833  1.00272037 27656
ABS-3A                  
1 40424U 15010A   22231.07080212 -.00000033  00000+0  00000+0 0  9996
2 40424   0.0166 101.3976 0002375 322.2501 286.2129  1.00271637 27363
EUTELSAT 115 WEST B     
1 40425U 15010B   22231.19456032 -.00000031  00000+0  00000+0 0  9995
2 40425   0.0075 250.4950 0000206 176.7964 215.3756  1.00272498 27418
EXPRESS-AM7             
1 40505U 15012A   22230.86419024  .00000144  00000+0  00000+0 0  9993
2 40505   0.0168 106.2256 0002867  48.6465 163.3940  1.00272152 26980
IRNSS-1D                
1 40547U 15018A   22228.75019135 -.00000277  00000+0  00000+0 0  9997
2 40547  28.8522 264.1256 0021386 193.3446 249.3471  1.00266041 26957
BEIDOU 17               
1 40549U 15019A   22230.69424362 -.00000185  00000+0  00000+0 0  9996
2 40549  51.7785 312.0344 0038059 195.3007 164.9313  1.00284155 27062
THOR 7                  
1 40613U 15022A   22231.07132530 -.00000015  00000+0  00000+0 0  9990
2 40613   0.0379 271.1243 0002569 236.5412 204.7589  1.00270966 26790
TURKMENALEM52E/MONACOSAT
1 40617U 15023A   22230.84632966  .00000097  00000+0  00000+0 0  9996
2 40617   0.0197 115.1457 0002324  34.5578 174.1418  1.00272444 26811
DIRECTV 15              
1 40663U 15026A   22231.20135262 -.00000109  00000+0  00000+0 0  9993
2 40663   0.0136 103.1997 0000513 268.5972 285.3417  1.00273135 26515
SKY MEXICO-1            
1 40664U 15026B   22230.84055894 -.00000241  00000+0  00000+0 0  9992
2 40664   0.0053 293.9132 0001957 228.4384  28.6531  1.00272937 26433
METEOSAT-11 (MSG-4)     
1 40732U 15034A   22230.78440189 -.00000014  00000+0  00000+0 0  9993
2 40732   0.4156  68.5368 0001288  34.5307 146.1338  1.00268111 26005
